COMMENT,ORIGINATOR,NORAD_CAT_ID,OBJECT_NAME,OBJECT_TYPE,CLASSIFICATION_TYPE,INTLDES,EPOCH,EPOCH_MICROSECONDS,MEAN_MOTION,ECCENTRICITY,INCLINATION,RA_OF_ASC_NODE,ARG_OF_PERICENTER,MEAN_ANOMALY,EPHEMERIS_TYPE,ELEMENT_SET_NO,REV_AT_EPOCH,BSTAR,MEAN_MOTION_DOT,MEAN_MOTION_DDOT,FILE,TLE_LINE0,TLE_LINE1,TLE_LINE2,OBJECT_ID,OBJECT_NUMBER,SEMIMAJOR_AXIS,PERIOD,APOGEE,PERIGEE,DECAYED
"GENERATED VIA SPACETRACK.ORG API","18 SPCS","48894","SPACEBEE-107","PAYLOAD","U","21059R","2023-06-17 20:09:42","799680","15.32998366","0.0005959","97.5972","306.4315","259.2364","100.8206","0","999","10952","0.00095277","0.0003039","0","3936420","0 SPACEBEE-107","1 48894U 21059R   23168.84007870  .00030390  00000-0  95277-3 0  9992","2 48894  97.5972 306.4315 0005959 259.2364 100.8206 15.32998366109521","2021-059R","48894","6845.009","93.934","470.953","462.795","1"
"GENERATED VIA SPACETRACK.ORG API","18 SPCS","48894","SPACEBEE-107","PAYLOAD","U","21059R","2023-06-18 16:31:36","928704","15.33048992","0.0006042","97.5973","307.3029","256.068","103.989","0","999","10965","0.00094706","0.00030256","0","3936531","0 SPACEBEE-107","1 48894U 21059R   23169.68862186  .00030256  00000-0  94706-3 0  9991","2 48894  97.5973 307.3029 0006042 256.0680 103.9890 15.33048992109653","2021-059R","48894","6844.859","93.930","470.859","462.588","1"
"GENERATED VIA SPACETRACK.ORG API","18 SPCS","48894","SPACEBEE-107","PAYLOAD","U","21059R","2023-06-18 16:31:36","928704","15.33048992","0.0006042","97.5973","307.3029","256.068","103.989","0","999","10965","0.00094706","0.00030256","0","3936745","0 SPACEBEE-107","1 48894U 21059R   23169.68862186  .00030256  00000-0  94706-3 0  9991","2 48894  97.5973 307.3029 0006042 256.0680 103.9890 15.33048992109653","2021-059R","48894","6844.859","93.930","470.859","462.588","1"
"GENERATED VIA SPACETRACK.ORG API","18 SPCS","48894","SPACEBEE-107","PAYLOAD","U","21059R","2023-06-19 03:29:32","665344","15.33079865","0.0006098","97.5975","307.7721","254.5971","105.4598","0","999","10972","0.0010077","0.00032238","0","3937338","0 SPACEBEE-107","1 48894U 21059R   23170.14551696  .00032238  00000-0  10077-2 0  9995","2 48894  97.5975 307.7721 0006098 254.5971 105.4598 15.33079865109728","2021-059R","48894","6844.767","93.929","470.806","462.458","1"
"GENERATED VIA SPACETRACK.ORG API","18 SPCS","48894","SPACEBEE-107","PAYLOAD","U","21059R","2023-06-19 19:09:25","235136","15.33126063","0.0006136","97.5978","308.4426","252.5019","107.5552","0","999","10982","0.0010755","0.00034473","0","3937509","0 SPACEBEE-107","1 48894U 21059R   23170.79820874  .00034473  00000-0  10755-2 0  9999","2 48894  97.5978 308.4426 0006136 252.5019 107.5552 15.33126063109822","2021-059R","48894","6844.629","93.926","470.694","462.294","1"
"GENERATED VIA SPACETRACK.ORG API","18 SPCS","48894","SPACEBEE-107","PAYLOAD","U","21059R","2023-06-19 19:09:25","235136","15.33126063","0.0006136","97.5978","308.4426","252.5019","107.5552","0","999","10982","0.0010755","0.00034473","0","3937618","0 SPACEBEE-107","1 48894U 21059R   23170.79820874  .00034473  00000-0  10755-2 0  9999","2 48894  97.5978 308.4426 0006136 252.5019 107.5552 15.33126063109822","2021-059R","48894","6844.629","93.926","470.694","462.294","1"
"GENERATED VIA SPACETRACK.ORG API","18 SPCS","48894","SPACEBEE-107","PAYLOAD","U","21059R","2023-06-20 07:41:18","98304","15.33161995","0.0006153","97.5979","308.9789","250.5175","109.5402","0","999","10990","0.0010861","0.00034855","0","3938135","0 SPACEBEE-107","1 48894U 21059R   23171.32034836  .00034855  00000-0  10861-2 0  9996","2 48894  97.5979 308.9789 0006153 250.5175 109.5402 15.33161995109908","2021-059R","48894","6844.522","93.924","470.599","462.176","1"
"GENERATED VIA SPACETRACK.ORG API","18 SPCS","48894","SPACEBEE-107","PAYLOAD","U","21059R","2023-06-20 20:13:09","854688","15.33200299","0.0006143","97.5981","309.5153","248.6071","111.4516","0","999","10998","0.0010876","0.00034945","0","3938544","0 SPACEBEE-107","1 48894U 21059R   23171.84247517  .00034945  00000-0  10876-2 0  9991","2 48894  97.5981 309.5153 0006143 248.6071 111.4516 15.33200299109982","2021-059R","48894","6844.408","93.921","470.478","462.069","1"
"GENERATED VIA SPACETRACK.ORG API","18 SPCS","48894","SPACEBEE-107","PAYLOAD","U","21059R","2023-06-20 21:47:08","736864","15.33205377","0.0006152","97.5981","309.5823","248.367","111.6916","0","999","10999","0.0011","0.00035352","0","3938666","0 SPACEBEE-107","1 48894U 21059R   23171.90774001  .00035352  00000-0  11000-2 0  9994","2 48894  97.5981 309.5823 0006152 248.3670 111.6916 15.33205377109997","2021-059R","48894","6844.393","93.921","470.469","462.048","1"
"GENERATED VIA SPACETRACK.ORG API","18 SPCS","48894","SPACEBEE-107","PAYLOAD","U","21059R","2023-06-21 08:45:00","518976","15.33236966","0.0006187","97.5981","310.0517","246.9121","113.1468","0","999","11006","0.0010997","0.00035378","0","3939133","0 SPACEBEE-107","1 48894U 21059R   23172.36458934  .00035378  00000-0  10997-2 0  9991","2 48894  97.5981 310.0517 0006187 246.9121 113.1468 15.33236966110064","2021-059R","48894","6844.299","93.919","470.399","461.930","1"
"GENERATED VIA SPACETRACK.ORG API","18 SPCS","48894","SPACEBEE-107","PAYLOAD","U","21059R","2023-06-22 08:14:40","144416","15.33303627","0.0006284","97.5981","311.0577","243.7898","116.2698","0","999","11021","0.0010571","0.0003407","0","3939764","0 SPACEBEE-107","1 48894U 21059R   23173.34352019  .00034070  00000-0  10571-2 0  9993","2 48894  97.5981 311.0577 0006284 243.7898 116.2698 15.33303627110210","2021-059R","48894","6844.101","93.915","470.267","461.665","1"
"GENERATED VIA SPACETRACK.ORG API","18 SPCS","48894","SPACEBEE-107","PAYLOAD","U","21059R","2023-06-23 07:44:15","848160","15.33379044","0.0006314","97.5984","312.0635","240.4773","119.5839","0","999","11036","0.001155","0.00037338","0","3940938","0 SPACEBEE-107","1 48894U 21059R   23174.32240565  .00037338  00000-0  11550-2 0  9992","2 48894  97.5984 312.0635 0006314 240.4773 119.5839 15.33379044110364","2021-059R","48894","6843.876","93.910","470.063","461.420","1"
"GENERATED VIA SPACETRACK.ORG API","18 SPCS","48894","SPACEBEE-107","PAYLOAD","U","21059R","2023-06-24 08:47:45","272544","15.3346128","0.0006355","97.5983","313.1366","236.8988","123.1644","0","999","11052","0.0011844","0.00038395","0","3941520","0 SPACEBEE-107","1 48894U 21059R   23175.36649621  .00038395  00000-0  11844-2 0  9993","2 48894  97.5983 313.1366 0006355 236.8988 123.1644 15.33461280110525","2021-059R","48894","6843.632","93.905","469.846","461.148","1"
"GENERATED VIA SPACETRACK.ORG API","18 SPCS","48894","SPACEBEE-107","PAYLOAD","U","21059R","2023-06-25 08:17:12","96096","15.33546831","0.0006411","97.5981","314.1428","234.2502","125.8144","0","999","11067","0.0014199","0.00046218","0","3942379","0 SPACEBEE-107","1 48894U 21059R   23176.34527889  .00046218  00000-0  14199-2 0  9992","2 48894  97.5981 314.1428 0006411 234.2502 125.8144 15.33546831110676","2021-059R","48894","6843.377","93.900","469.630","460.855","1"
"GENERATED VIA SPACETRACK.ORG API","18 SPCS","48894","SPACEBEE-107","PAYLOAD","U","21059R","2023-06-25 22:22:50","46816","15.33591922","0.0006466","97.5979","314.7464","232.0875","127.9783","0","999","11076","0.0012313","0.00040093","0","3942963","0 SPACEBEE-107","1 48894U 21059R   23176.93252369  .00040093  00000-0  12313-2 0  9996","2 48894  97.5979 314.7464 0006466 232.0875 127.9783 15.33591922110761","2021-059R","48894","6843.243","93.897","469.533","460.683","1"
"GENERATED VIA SPACETRACK.ORG API","18 SPCS","48894","SPACEBEE-107","PAYLOAD","U","21059R","2023-06-27 02:34:01","487424","15.33676947","0.0006469","97.5977","315.9539","228.0666","132.0025","0","999","11094","0.001075","0.00035064","0","3943813","0 SPACEBEE-107","1 48894U 21059R   23178.10696166  .00035064  00000-0  10750-2 0  9999","2 48894  97.5977 315.9539 0006469 228.0666 132.0025 15.33676947110948","2021-059R","48894","6842.990","93.892","469.282","460.428","1"
"GENERATED VIA SPACETRACK.ORG API","18 SPCS","48894","SPACEBEE-107","PAYLOAD","U","21059R","2023-06-28 08:19:04","387584","15.33759479","0.0006537","97.5974","317.2284","224.5043","135.5674","0","999","11113","0.00098495","0.00032192","0","3944900","0 SPACEBEE-107","1 48894U 21059R   23179.34657856  .00032192  00000-0  98495-3 0  9991","2 48894  97.5974 317.2284 0006537 224.5043 135.5674 15.33759479111135","2021-059R","48894","6842.745","93.887","469.083","460.137","1"
"GENERATED VIA SPACETRACK.ORG API","18 SPCS","48894","SPACEBEE-107","PAYLOAD","U","21059R","2023-07-01 08:20:23","233632","15.33943857","0.000674","97.5978","320.3142","214.5241","145.5564","0","999","11159","0.00077207","0.00025342","0","3946771","0 SPACEBEE-107","1 48894U 21059R   23182.34749113  .00025342  00000-0  77207-3 0  9990","2 48894  97.5978 320.3142 0006740 214.5241 145.5564 15.33943857111596","2021-059R","48894","6842.196","93.876","468.673","459.450","1"
"GENERATED VIA SPACETRACK.ORG API","18 SPCS","48894","SPACEBEE-107","PAYLOAD","U","21059R","2023-07-02 21:54:47","540736","15.34030864","0.0006824","97.5985","321.9244","209.2194","150.8667","0","999","11183","0.00083745","0.00027579","0","3948072","0 SPACEBEE-107","1 48894U 21059R   23183.91305024  .00027579  00000-0  83745-3 0  9991","2 48894  97.5985 321.9244 0006824 209.2194 150.8667 15.34030864111831","2021-059R","48894","6841.938","93.870","468.472","459.134","1"
"GENERATED VIA SPACETRACK.ORG API","18 SPCS","48894","SPACEBEE-107","PAYLOAD","U","21059R","2023-07-03 22:57:39","413088","15.34089863","0.0006906","97.5988","322.9979","205.7932","154.2967","0","999","11199","0.00082155","0.00027103","0","3948991","0 SPACEBEE-107","1 48894U 21059R   23184.95670617  .00027103  00000-0  82155-3 0  9996","2 48894  97.5988 322.9979 0006906 205.7932 154.2967 15.34089863111993","2021-059R","48894","6841.762","93.867","468.352","458.902","1"
